STARLINK-3882           
1 52475U 22049AA  26068.26391134  .00001621  00000+0  11992-3 0  9995
2 52475  53.2177  61.2538 0001432  73.4539 286.6610 15.08829678212183
CURIUM ONE              
1 60242U 24128H   26068.68697111  .00012574  00000+0  74107-3 0  9992
2 60242  61.9790 197.7537 0050891 110.7183 249.9377 15.10847276 91418
