[{"OBJECT_NAME":"STARLINK-3882","OBJECT_ID":"2022-049AA","EPOCH":"2026-03-09T06:20:01.939776","MEAN_MOTION":15.08829678,"ECCENTRICITY":0.00014324,"INCLINATION":53.2177,"RA_OF_ASC_NODE":61.2538,"ARG_OF_PERICENTER":73.4539,"MEAN_ANOMALY":286.661,"EPHEMERIS_TYPE":0,"CLASSIFICATION_TYPE":"U","NORAD_CAT_ID":52475,"ELEMENT_SET_NO":999,"REV_AT_EPOCH":21218,"BSTAR":0.00011991518,"MEAN_MOTION_DOT":1.621e-5,"MEAN_MOTION_DDOT":0},{"OBJECT_NAME":"CURIUM ONE","OBJECT_ID":"2024-128H","EPOCH":"2026-03-09T16:29:14.303904","MEAN_MOTION":15.10847276,"ECCENTRICITY":0.00508907,"INCLINATION":61.979,"RA_OF_ASC_NODE":197.7537,"ARG_OF_PERICENTER":110.7183,"MEAN_ANOMALY":249.9377,"EPHEMERIS_TYPE":0,"CLASSIFICATION_TYPE":"U","NORAD_CAT_ID":60242,"ELEMENT_SET_NO":999,"REV_AT_EPOCH":9141,"BSTAR":0.00074106619,"MEAN_MOTION_DOT":0.00012574,"MEAN_MOTION_DDOT":0}]
